[{"OBJECT_NAME":"STARLINK-1246","OBJECT_ID":"2020-012BK","EPOCH":"2026-03-09T07:11:40.046784","MEAN_MOTION":15.30215288,"ECCENTRICITY":0.0001484,"INCLINATION":53.1615,"RA_OF_ASC_NODE":41.0601,"ARG_OF_PERICENTER":96.3755,"MEAN_ANOMALY":263.7415,"EPHEMERIS_TYPE":0,"CLASSIFICATION_TYPE":"U","NORAD_CAT_ID":45235,"ELEMENT_SET_NO":999,"REV_AT_EPOCH":33491,"BSTAR":0.00020978976,"MEAN_MOTION_DOT":5.862e-5,"MEAN_MOTION_DDOT":0},{"OBJECT_NAME":"COSMOS 2251 DEB","OBJECT_ID":"1993-036BTX","EPOCH":"2026-02-28T17:34:44.973408","MEAN_MOTION":15.25753352,"ECCENTRICITY":0.00216382,"INCLINATION":73.9681,"RA_OF_ASC_NODE":229.3494,"ARG_OF_PERICENTER":13.6287,"MEAN_ANOMALY":346.5492,"EPHEMERIS_TYPE":0,"CLASSIFICATION_TYPE":"U","NORAD_CAT_ID":38487,"ELEMENT_SET_NO":999,"REV_AT_EPOCH":67986,"BSTAR":0.0024802785,"MEAN_MOTION_DOT":0.00064261,"MEAN_MOTION_DDOT":0}]
